     3.02           N: GNSS NAV DATA    M: MIXED NAV DATA   RINEX VERSION / TYPE
NetR9 5.10          Receiver Operator   20160429 000000 UTC PGM / RUN BY / DATE
GPSA    .1397D-07   .2235D-07  -.1192D-06  -.1192D-06       IONOSPHERIC CORR
GPSB    .1044D+06   .9830D+05  -.1966D+06  -.3932D+06       IONOSPHERIC CORR
GAL     .3750D+02   .1953D-01   .1657D-01   .0000D+00       IONOSPHERIC CORR
QZSA    .2980D-07  -.2012D-06  -.1192D-06   .1669D-05       IONOSPHERIC CORR
QZSB    .1188D+06  -.4588D+06   .1507D+07   .8323D+07       IONOSPHERIC CORR
GPUT   .1862645149D-08  .621724894D-14  61440 1895          TIME SYSTEM CORR
GAUT  -.1862645149D-08  .266453526D-14 345600 1894          TIME SYSTEM CORR
QZUT   .2514570951D-07  .266453526D-14  53248 1895          TIME SYSTEM CORR
    17    17  1851     3                                    LEAP SECONDS
                                                            END OF HEADER
E30 2016 04 29 09 00 00  .541421311209D-02  .399225541514D-09  .000000000000D+00
      .600000000000D+01  .730000000000D+02  .243295848534D-08  .189929796376D+01
      .329129397869D-05  .401418772526D-03  .732392072678D-05  .544062108421D+04
      .464400000000D+06  .298023223877D-07  .193719246620D+01 -.149011611938D-07
      .999504966697D+00  .202125000000D+03  .971006810491D+00 -.541058251534D-08
     -.803604901941D-10  .513000000000D+03  .189400000000D+04
      .107000000000D+03  .000000000000D+00 -.116415321827D-08 -.162981450558D-08
      .465085000000D+06
E08 2016 04 29 09 00 00  .175459921593D-02  .398813426727D-09  .000000000000D+00
      .600000000000D+01  .281250000000D+02  .362372237115D-08  .305861837150D+00
      .138953328133D-05  .208407756872D-03  .678934156895D-05  .544060961342D+04
      .464400000000D+06  .000000000000D+00 -.160493563555D+00  .100582838058D-06
      .959404742213D+00  .196468750000D+03 -.165753077648D+01 -.578952687132D-08
      .325013538118D-10  .513000000000D+03  .189400000000D+04
      .107000000000D+03  .000000000000D+00 -.745058059692D-08 -.861473381519D-08
      .465085000000D+06
E30 2016 04 29 09 00 00  .541421218077D-02  .399225541514D-09  .000000000000D+00
      .600000000000D+01  .730000000000D+02  .243295848534D-08  .189929796376D+01
      .329129397869D-05  .401418772526D-03  .732392072678D-05  .544062108421D+04
      .464400000000D+06  .298023223877D-07  .193719246620D+01 -.149011611938D-07
      .999504966697D+00  .202125000000D+03  .971006810491D+00 -.541058251534D-08
     -.803604901941D-10  .258000000000D+03  .189400000000D+04
      .107000000000D+03  .000000000000D+00 -.116415321827D-08  .000000000000D+00
      .465130000000D+06
J01 2016 04 29 10 15 12 -.326337292790D-03  .341060513165D-10  .277555756156D-16
      .230000000000D+03 -.101562500000D+02  .248188909493D-08  .123980287952D+01
     -.223517417908D-07  .751473549753D-01  .105500221252D-04  .649284969711D+04
      .468912000000D+06  .106170773506D-06 -.820328926930D+00 -.843778252602D-06
      .709929585863D+00 -.149031250000D+03 -.157805903626D+01 -.266189659296D-08
      .416445918073D-09  .200000000000D+01  .189400000000D+04  .100000000000D+01
      .240000000000D+01  .100000000000D+01 -.512227416039D-08  .230000000000D+03
      .465306000000D+06  .400000000000D+01
E30 2016 04 29 09 10 00  .541445263661D-02  .399225541514D-09  .000000000000D+00
      .700000000000D+01  .722812500000D+02  .244760195245D-08  .197430605126D+01
      .326521694660D-05  .401648343541D-03  .741332769394D-05  .544062040520D+04
      .465000000000D+06  .298023223877D-07  .193718921852D+01 -.149011611938D-07
      .999504925735D+00  .199562500000D+03  .970383188995D+00 -.541022535760D-08
     -.803604901941D-10  .516000000000D+03  .189400000000D+04
      .107000000000D+03  .000000000000D+00 -.116415321827D-08 -.162981450558D-08
      .465694000000D+06
E08 2016 04 29 09 10 00  .175483850762D-02  .398813426727D-09  .000000000000D+00
      .700000000000D+01  .282500000000D+02  .362122226701D-08  .380289855685D+00
      .138394534588D-05  .208395766094D-03  .679120421410D-05  .544060958290D+04
      .465000000000D+06 -.186264514923D-07 -.160497138927D+00  .931322574615D-07
      .959404765619D+00  .196500000000D+03 -.165757293046D+01 -.577988361250D-08
      .428589281035D-10  .516000000000D+03  .189400000000D+04
      .107000000000D+03  .000000000000D+00 -.745058059692D-08 -.861473381519D-08
      .465694000000D+06
E30 2016 04 29 09 10 00  .541445263661D-02  .399225541514D-09  .000000000000D+00
      .700000000000D+01  .722812500000D+02  .244760195245D-08  .197430605126D+01
      .326521694660D-05  .401648343541D-03  .741332769394D-05  .544062040520D+04
      .465000000000D+06  .298023223877D-07  .193718921852D+01 -.149011611938D-07
      .999504925735D+00  .199562500000D+03  .970383188995D+00 -.541022535760D-08
     -.803604901941D-10  .513000000000D+03  .189400000000D+04
      .107000000000D+03  .000000000000D+00 -.116415321827D-08 -.162981450558D-08
      .465685000000D+06
E08 2016 04 29 09 10 00  .175483850762D-02  .398813426727D-09  .000000000000D+00
      .700000000000D+01  .282500000000D+02  .362122226701D-08  .380289855685D+00
      .138394534588D-05  .208395766094D-03  .679120421410D-05  .544060958290D+04
      .465000000000D+06 -.186264514923D-07 -.160497138927D+00  .931322574615D-07
      .959404765619D+00  .196500000000D+03 -.165757293046D+01 -.577988361250D-08
      .428589281035D-10  .513000000000D+03  .189400000000D+04
      .107000000000D+03  .000000000000D+00 -.745058059692D-08 -.861473381519D-08
      .465685000000D+06
E30 2016 04 29 09 10 00  .541445187991D-02  .399225541514D-09  .000000000000D+00
      .700000000000D+01  .722812500000D+02  .244760195245D-08  .197430605126D+01
      .326521694660D-05  .401648343541D-03  .741332769394D-05  .544062040520D+04
      .465000000000D+06  .298023223877D-07  .193718921852D+01 -.149011611938D-07
      .999504925735D+00  .199562500000D+03  .970383188995D+00 -.541022535760D-08
     -.803604901941D-10  .258000000000D+03  .189400000000D+04
      .107000000000D+03  .000000000000D+00 -.116415321827D-08  .000000000000D+00
      .465730000000D+06
J01 2016 04 29 10 30 08 -.326306559145D-03  .341060513165D-10  .000000000000D+00
      .231000000000D+03 -.806250000000D+01  .257296431715D-08  .130517749054D+01
      .111758708954D-07  .751471332042D-01  .108927488327D-04  .649284616470D+04
      .469808000000D+06  .298023223877D-07 -.820331194453D+00 -.743195414543D-06
      .709929449811D+00 -.163500000000D+03 -.157807769725D+01 -.273154235113D-08
      .397873715894D-09  .200000000000D+01  .189400000000D+04  .100000000000D+01
      .240000000000D+01  .100000000000D+01 -.512227416039D-08  .231000000000D+03
      .466206000000D+06  .400000000000D+01
R15 2016 04 29 09 45 00  .687167048454D-04  .909494701773D-12  .342000000000D+05
     -.192252041016D+05  .133275318146D+01  .000000000000D+00  .000000000000D+00
      .114390625000D+05 -.105822086334D+01  .931322574615D-09  .000000000000D+00
     -.123519409180D+05 -.304448413849D+01  .186264514923D-08  .000000000000D+00
R05 2016 04 29 09 45 00 -.112270936370D-04 -.909494701773D-12  .342000000000D+05
     -.843783837891D+04 -.297369098663D+01  .000000000000D+00  .000000000000D+00
      .905749511719D+04 -.687508583069D+00  .000000000000D+00  .100000000000D+01
     -.223071425781D+05  .846257209778D+00  .279396772385D-08  .000000000000D+00
R04 2016 04 29 09 45 00  .166876241565D-03  .909494701773D-12  .342000000000D+05
     -.223073896484D+05 -.167651939392D+01  .000000000000D+00  .000000000000D+00
      .470472656250D+03 -.281639099121D+00  .000000000000D+00  .600000000000D+01
     -.123574233398D+05  .301014137268D+01  .931322574615D-09  .000000000000D+00
R21 2016 04 29 09 45 00  .617774203420D-04  .181898940355D-11  .342000000000D+05
      .120900126953D+05  .720221519470D+00  .000000000000D+00  .000000000000D+00
      .155378618164D+05  .210766029358D+01  .000000000000D+00  .400000000000D+01
     -.162260458984D+05  .255238533020D+01  .186264514923D-08  .000000000000D+00
R20 2016 04 29 09 45 00 -.231320969760D-03 -.181898940355D-11  .342000000000D+05
      .666437695313D+04  .224997520447D+00 -.931322574615D-09  .000000000000D+00
      .245779082031D+05  .496387481689D-01  .186264514923D-08  .200000000000D+01
     -.747766113281D+03  .359486770630D+01  .931322574615D-09  .000000000000D+00
R14 2016 04 29 09 45 00  .313177704811D-03  .454747350886D-11  .342000000000D+05
     -.131515043945D+05  .216067123413D+01  .000000000000D+00  .000000000000D+00
     -.794496093750D+03 -.206936836243D+01 -.931322574615D-09 -.700000000000D+01
     -.218529853516D+05 -.123289871216D+01  .186264514923D-08  .000000000000D+00
R16 2016 04 29 09 45 00  .318782404065D-04  .909494701773D-12  .342000000000D+05
     -.151094218750D+05 -.465801239014D+00 -.931322574615D-09  .000000000000D+00
      .196548427734D+05  .737430572510D+00  .186264514923D-08 -.100000000000D+01
      .621512695312D+04 -.343896579742D+01  .931322574615D-09  .000000000000D+00
R06 2016 04 29 09 45 00  .881450250745D-04  .000000000000D+00  .342000000000D+05
      .115333222656D+05 -.252532958984D+01  .000000000000D+00  .000000000000D+00
      .123188217773D+05 -.689907073975D+00  .000000000000D+00 -.400000000000D+01
     -.191244492188D+05 -.197107219696D+01  .279396772385D-08  .000000000000D+00
R19 2016 04 29 09 45 00 -.153663568199D-03  .000000000000D+00  .342000000000D+05
     -.263010986328D+04 -.408116340637D+00 -.931322574615D-09  .000000000000D+00
      .195547719727D+05 -.218215847015D+01  .279396772385D-08  .300000000000D+01
      .161668344727D+05  .257417488098D+01  .000000000000D+00  .000000000000D+00
